     2              NAVIGATION DATA                         RINEX VERSION / TYPE
CCRINEXN V1.6.0 UX  CDDIS               06-JUL-16 15:33     PGM / RUN BY / DATE 
IGS BROADCAST EPHEMERIS FILE                                COMMENT             
    0.4657D-08  0.1490D-07 -0.5960D-07 -0.1192D-06          ION ALPHA           
    0.8192D+05  0.8192D+05 -0.6554D+05 -0.5243D+06          ION BETA            
    0.931322574615D-09 0.621724893790D-14   319488     1904 DELTA-UTC: A0,A1,T,W
    17                                                      LEAP SECONDS        
                                                            END OF HEADER       
19 16  7  5  4  0  0.0-0.525156501681D-03 0.227373675443D-12 0.000000000000D+00
    0.240000000000D+02-0.130781250000D+03 0.417553107049D-08-0.185578239171D+01
   -0.688247382641D-05 0.107774146600D-01 0.325217843056D-05 0.515362761498D+04
    0.187200000000D+06 0.137835741043D-06 0.241421490524D+01-0.130385160446D-06
    0.974031210755D+00 0.315375000000D+03 0.808166790705D+00-0.801069082028D-08
   -0.889322758148D-10 0.000000000000D+00 0.190400000000D+04 0.000000000000D+00
    0.200000000000D+01 0.000000000000D+00-0.149011611938D-07 0.240000000000D+02
    0.184260000000D+06 0.400000000000D+01 0.000000000000D+00 0.000000000000D+00
20 16  7  5  4  0  0.0 0.422399025410D-03 0.227373675443D-11 0.000000000000D+00
    0.170000000000D+02 0.395937500000D+02 0.581595654365D-08 0.489657873153D+00
    0.218302011490D-05 0.456695468165D-02 0.686943531036D-05 0.515375524139D+04
    0.187200000000D+06-0.260770320892D-07-0.195518363023D+01 0.707805156708D-07
    0.925976394085D+00 0.229906250000D+03 0.138952702827D+01-0.870607692876D-08
    0.540379651839D-09 0.100000000000D+01 0.190400000000D+04 0.000000000000D+00
    0.200000000000D+01 0.000000000000D+00-0.838190317154D-08 0.170000000000D+02
    0.180000000000D+06 0.400000000000D+01 0.000000000000D+00 0.000000000000D+00
21 16  7  5  4  0  0.0-0.527580268681D-03-0.909494701773D-12 0.000000000000D+00
    0.250000000000D+02-0.703125000000D+02 0.458733393801D-08-0.250634195184D+01
   -0.385195016861D-05 0.233375871321D-01 0.118277966976D-04 0.515359730721D+04
    0.187200000000D+06 0.288709998131D-06-0.294503899909D+01 0.558793544769D-07
    0.937140714850D+00 0.127468750000D+03-0.177811139832D+01-0.759567353315D-08
    0.531093550750D-09 0.100000000000D+01 0.190400000000D+04 0.000000000000D+00
    0.200000000000D+01 0.000000000000D+00-0.102445483208D-07 0.250000000000D+02
    0.180000000000D+06 0.400000000000D+01 0.000000000000D+00 0.000000000000D+00
22 16  7  5  4  0  0.0 0.304408371448D-03-0.898126018001D-11 0.000000000000D+00
    0.380000000000D+02 0.312187500000D+02 0.600989319332D-08 0.841408704553D+00
    0.170245766640D-05 0.765264907386D-02 0.659190118313D-05 0.515377601242D+04
    0.187200000000D+06-0.689178705216D-07-0.190284223245D+01 0.428408384323D-07
    0.922574332741D+00 0.236093750000D+03-0.189384574123D+01-0.878322299935D-08
    0.536808074497D-09 0.000000000000D+00 0.190400000000D+04 0.000000000000D+00
    0.200000000000D+01 0.000000000000D+00-0.176951289177D-07 0.380000000000D+02
    0.180000000000D+06 0.400000000000D+01 0.000000000000D+00 0.000000000000D+00
24 16  7  5  4  0  0.0-0.196266919374D-04-0.568434188608D-12 0.000000000000D+00
    0.710000000000D+02 0.768125000000D+02 0.438803992233D-08-0.542268433234D+00
    0.385381281376D-05 0.443649501540D-02 0.112615525723D-04 0.515362043762D+04
    0.187200000000D+06 0.707805156708D-07 0.200441346124D+00 0.894069671631D-07
    0.949443455057D+00 0.158468750000D+03 0.411816050431D+00-0.796747473445D-08
   -0.380015829185D-09 0.100000000000D+01 0.190400000000D+04 0.000000000000D+00
    0.280000000000D+01 0.000000000000D+00 0.232830643654D-08 0.710000000000D+02
    0.185610000000D+06 0.400000000000D+01 0.000000000000D+00 0.000000000000D+00
25 16  7  5  4  0  0.0-0.202564056963D-03-0.704858393874D-11 0.000000000000D+00
    0.770000000000D+02 0.975312500000D+02 0.410874257419D-08-0.263323437616D+01
    0.517256557941D-05 0.561300129630D-02 0.189431011677D-05 0.515373172379D+04
    0.187200000000D+06-0.558793544769D-08 0.127375047433D+01 0.223517417908D-07
    0.978273408397D+00 0.353000000000D+03 0.792933554945D+00-0.805783564120D-08
    0.310370071016D-09 0.100000000000D+01 0.190400000000D+04 0.000000000000D+00
    0.200000000000D+01 0.000000000000D+00 0.558793544769D-08 0.770000000000D+02
    0.180000000000D+06 0.400000000000D+01 0.000000000000D+00 0.000000000000D+00
26 16  7  5  4  0  0.0-0.414697919041D-03-0.103455022327D-10 0.000000000000D+00
    0.480000000000D+02 0.106000000000D+03 0.462376402690D-08 0.286109101190D+01
    0.550597906113D-05 0.994161353447D-03 0.169686973095D-05 0.515378498077D+04
    0.187200000000D+06 0.502914190292D-07 0.126409656674D+01-0.409781932831D-07
    0.960233840794D+00 0.347968750000D+03 0.179741713615D+00-0.848428197583D-08
    0.304655547269D-09 0.100000000000D+01 0.190400000000D+04 0.000000000000D+00
    0.200000000000D+01 0.000000000000D+00 0.698491930962D-08 0.480000000000D+02
    0.180000000000D+06 0.400000000000D+01 0.000000000000D+00 0.000000000000D+00
27 16  7  5  4  0  0.0 0.111061148346D-03 0.432009983342D-11 0.000000000000D+00
    0.820000000000D+02-0.121093750000D+03 0.433482361117D-08 0.129685933396D+01
   -0.636465847492D-05 0.376804592088D-02 0.335834920406D-05 0.515364742088D+04
    0.187200000000D+06-0.372529029846D-07 0.231540096981D+01 0.745058059692D-07
    0.971778486612D+00 0.320187500000D+03 0.321758980245D+00-0.828034529832D-08
   -0.305369868281D-09 0.100000000000D+01 0.190400000000D+04 0.000000000000D+00
    0.280000000000D+01 0.000000000000D+00 0.139698386192D-08 0.820000000000D+02
    0.180000000000D+06 0.000000000000D+00 0.000000000000D+00 0.000000000000D+00
28 16  7  5  4  0  0.0 0.534918624908D-03 0.272848410532D-11 0.000000000000D+00
    0.200000000000D+01 0.959687500000D+02 0.384337437768D-08 0.212167099445D+01
    0.468268990517D-05 0.197546456475D-01 0.187568366528D-05 0.515362738228D+04
    0.187200000000D+06 0.257045030594D-06 0.134885150247D+01-0.175088644028D-06
    0.989264095415D+00 0.352937500000D+03-0.161449532390D+01-0.781496838195D-08
    0.277868717205D-09 0.000000000000D+00 0.190400000000D+04 0.000000000000D+00
    0.200000000000D+01 0.000000000000D+00-0.111758708954D-07 0.200000000000D+01
    0.180000000000D+06 0.400000000000D+01 0.000000000000D+00 0.000000000000D+00
29 16  7  5  4  0  0.0 0.655909068882D-03-0.568434188608D-12 0.000000000000D+00
    0.104000000000D+03-0.124937500000D+03 0.408517016374D-08-0.274399298065D+01
   -0.641681253910D-05 0.860273838043D-03 0.415183603764D-05 0.515355100632D+04
    0.187200000000D+06-0.242143869400D-07 0.237529097368D+01 0.558793544769D-08
    0.977865889159D+00 0.308187500000D+03-0.102159021962D+00-0.807212195057D-08
   -0.197508227010D-09 0.100000000000D+01 0.190400000000D+04 0.000000000000D+00
    0.200000000000D+01 0.000000000000D+00-0.102445483208D-07 0.104000000000D+03
    0.180000000000D+06 0.400000000000D+01 0.000000000000D+00 0.000000000000D+00
31 16  7  5  4  0  0.0 0.260516535491D-03-0.193267624127D-11 0.000000000000D+00
    0.200000000000D+02 0.105375000000D+03 0.390016241525D-08-0.165322873817D+01
    0.540353357792D-05 0.814796355553D-02 0.119376927614D-04 0.515378359413D+04
    0.187200000000D+06-0.763684511185D-07 0.257757320764D+00-0.819563865662D-07
    0.971180109230D+00 0.157125000000D+03-0.394265505621D+00-0.769067742823D-08
   -0.170007077860D-09 0.100000000000D+01 0.190400000000D+04 0.000000000000D+00
    0.200000000000D+01 0.000000000000D+00-0.135041773319D-07 0.200000000000D+02
    0.180000000000D+06 0.000000000000D+00 0.000000000000D+00 0.000000000000D+00
32 16  7  5  4  0  0.0-0.401609577239D-04-0.943600753089D-11 0.000000000000D+00
    0.430000000000D+02-0.263750000000D+02 0.487770313029D-08 0.165247162686D+01
   -0.136904418468D-05 0.562888686545D-03 0.742264091969D-05 0.515361662865D+04
    0.187200000000D+06-0.391155481338D-07-0.827955551901D+00 0.484287738800D-07
    0.959261872170D+00 0.237500000000D+03-0.231420090154D+01-0.807962230454D-08
   -0.648598452724D-09 0.100000000000D+01 0.190400000000D+04 0.000000000000D+00
    0.200000000000D+01 0.000000000000D+00 0.465661287308D-09 0.430000000000D+02
    0.180000000000D+06 0.000000000000D+00 0.000000000000D+00 0.000000000000D+00
 3 16  7  5  5 59 44.0-0.704159028828D-04-0.318323145621D-11 0.000000000000D+00
    0.180000000000D+02 0.285937500000D+02 0.508806907718D-08 0.104645039407D+01
    0.155717134476D-05 0.204060343094D-03 0.653788447380D-05 0.515366005325D+04
    0.194384000000D+06 0.149011611938D-07-0.186908139522D+01 0.931322574616D-08
    0.958919050485D+00 0.254187500000D+03-0.144188698024D+01-0.817391221375D-08
    0.600024974151D-09 0.100000000000D+01 0.190400000000D+04 0.000000000000D+00
    0.200000000000D+01 0.000000000000D+00 0.186264514923D-08 0.180000000000D+02
    0.191430000000D+06 0.000000000000D+00 0.000000000000D+00 0.000000000000D+00
17 16  7  5  5 59 44.0-0.203964300454D-03 0.000000000000D+00 0.000000000000D+00
    0.800000000000D+01-0.127906250000D+03 0.404588281297D-08 0.235630817209D+01
   -0.661797821522D-05 0.110002971487D-01 0.323727726936D-05 0.515371693039D+04
    0.194384000000D+06 0.135973095894D-06 0.236547137014D+01-0.126659870148D-06
    0.976870532864D+00 0.324375000000D+03-0.192598283008D+01-0.800104756146D-08
   -0.243224416987D-09 0.000000000000D+00 0.190400000000D+04 0.000000000000D+00
    0.200000000000D+01 0.000000000000D+00-0.107102096081D-07 0.800000000000D+01
    0.187200000000D+06 0.400000000000D+01 0.000000000000D+00 0.000000000000D+00
